ONEWEB-0564             
1 55801U 23029F   25281.16754953  .00000060  00000+0  11630-3 0  9992
2 55801  87.9226 324.7317 0001869  83.8669 276.2677 13.20769289127886
ONEWEB-0638             
1 55802U 23029G   25281.21485121  .00000014  00000+0  38332-5 0  9996
2 55802  87.9052 339.9590 0001485  87.1702 272.9598 13.14503001126294
ONEWEB-0639             
1 55803U 23029H   25281.24432896 -.00000139  00000+0 -37978-3 0  9994
2 55803  87.9269 355.1012 0001911 135.2272 224.9015 13.19726722125679
ONEWEB-0640             
1 55804U 23029J   25281.22437156  .00000220  00000+0  56023-3 0  9998
2 55804  87.9056 339.9418 0001100 101.5542 258.5711 13.14503149126319
ONEWEB-0641             
1 55805U 23029K   25281.23961138  .00000133  00000+0  29943-3 0  9996
2 55805  87.9278 355.0771 0001873 106.9875 253.1463 13.19726098125681
ONEWEB-0642             
1 55806U 23029L   25281.23485451 -.00000228  00000+0 -60089-3 0  9999
2 55806  87.9265 355.1085 0002110 126.2358 233.8970 13.19724863125678
ONEWEB-0643             
1 55807U 23029M   25281.19423098 -.00000166  00000+0 -48194-3 0  9998
2 55807  87.9057 339.9319 0002287 116.0617 244.0748 13.14502172126285
ONEWEB-0644             
1 55808U 23029N   25281.23012669  .00000103  00000+0  22513-3 0  9998
2 55808  87.9266 355.1179 0001941 115.5779 244.5554 13.19727286125673
